[{"OBJECT_NAME":"OBJECT M","OBJECT_ID":"2024-205M","EPOCH":"2026-03-09T22:23:47.520096","MEAN_MOTION":15.27663844,"ECCENTRICITY":0.00036602,"INCLINATION":97.3915,"RA_OF_ASC_NODE":144.193,"ARG_OF_PERICENTER":310.2554,"MEAN_ANOMALY":49.8364,"EPHEMERIS_TYPE":0,"CLASSIFICATION_TYPE":"U","NORAD_CAT_ID":61905,"ELEMENT_SET_NO":999,"REV_AT_EPOCH":7334,"BSTAR":0.00036391974,"MEAN_MOTION_DOT":9.771e-5,"MEAN_MOTION_DDOT":0},{"OBJECT_NAME":"STARLINK-34042","OBJECT_ID":"2025-093C","EPOCH":"2026-03-09T09:49:18.752448","MEAN_MOTION":15.27576469,"ECCENTRICITY":0.00010863,"INCLINATION":43.0035,"RA_OF_ASC_NODE":75.645,"ARG_OF_PERICENTER":260.0551,"MEAN_ANOMALY":100.0178,"EPHEMERIS_TYPE":0,"CLASSIFICATION_TYPE":"U","NORAD_CAT_ID":63838,"ELEMENT_SET_NO":999,"REV_AT_EPOCH":4797,"BSTAR":0.00052197555,"MEAN_MOTION_DOT":0.00014127,"MEAN_MOTION_DDOT":0}]
